CCSDS_OMM_VERS = 2.0
CREATION_DATE  = 
ORIGINATOR     = 

OBJECT_NAME    = STARLINK-36482
OBJECT_ID      = 2026-002E
CENTER_NAME    = EARTH
REF_FRAME      = TEME
TIME_SYSTEM    = UTC
MEAN_ELEMENT_THEORY = SGP/SGP4

EPOCH          = 2026-01-16T06:00:00.999648
MEAN_MOTION    = 15.85266151
ECCENTRICITY   = .00018491
INCLINATION    = 42.9975
RA_OF_ASC_NODE = 268.0826
ARG_OF_PERICENTER = 276.0385
MEAN_ANOMALY   = 55.5327

EPHEMERIS_TYPE = 0
CLASSIFICATION_TYPE = U
NORAD_CAT_ID   = 67309
ELEMENT_SET_NO = 999
REV_AT_EPOCH   = 298
BSTAR          = -.62267441E-2
MEAN_MOTION_DOT = -.1343579E-1
MEAN_MOTION_DDOT = 0

CCSDS_OMM_VERS = 2.0
CREATION_DATE  = 
ORIGINATOR     = 

OBJECT_NAME    = STARLINK-36491
OBJECT_ID      = 2026-002F
CENTER_NAME    = EARTH
REF_FRAME      = TEME
TIME_SYSTEM    = UTC
MEAN_ELEMENT_THEORY = SGP/SGP4

EPOCH          = 2026-01-16T06:00:00.999648
MEAN_MOTION    = 15.85289899
ECCENTRICITY   = .0001927
INCLINATION    = 42.9975
RA_OF_ASC_NODE = 268.1243
ARG_OF_PERICENTER = 277.0404
MEAN_ANOMALY   = 37.7807

EPHEMERIS_TYPE = 0
CLASSIFICATION_TYPE = U
NORAD_CAT_ID   = 67310
ELEMENT_SET_NO = 999
REV_AT_EPOCH   = 298
BSTAR          = -.60168908E-2
MEAN_MOTION_DOT = -.1305141E-1
MEAN_MOTION_DDOT = 0

CCSDS_OMM_VERS = 2.0
CREATION_DATE  = 
ORIGINATOR     = 

OBJECT_NAME    = STARLINK-36495
OBJECT_ID      = 2026-002G
CENTER_NAME    = EARTH
REF_FRAME      = TEME
TIME_SYSTEM    = UTC
MEAN_ELEMENT_THEORY = SGP/SGP4

EPOCH          = 2026-01-16T06:00:00.999648
MEAN_MOTION    = 15.85287780
ECCENTRICITY   = .00018729
INCLINATION    = 42.9973
RA_OF_ASC_NODE = 268.1064
ARG_OF_PERICENTER = 273.5533
MEAN_ANOMALY   = 48.3303

EPHEMERIS_TYPE = 0
CLASSIFICATION_TYPE = U
NORAD_CAT_ID   = 67311
ELEMENT_SET_NO = 999
REV_AT_EPOCH   = 314
BSTAR          = -.61159474E-2
MEAN_MOTION_DOT = -.1323845E-1
MEAN_MOTION_DDOT = 0

CCSDS_OMM_VERS = 2.0
CREATION_DATE  = 
ORIGINATOR     = 

OBJECT_NAME    = STARLINK-36485
OBJECT_ID      = 2026-002H
CENTER_NAME    = EARTH
REF_FRAME      = TEME
TIME_SYSTEM    = UTC
MEAN_ELEMENT_THEORY = SGP/SGP4

EPOCH          = 2026-01-16T06:00:00.999648
MEAN_MOTION    = 15.85264449
ECCENTRICITY   = .00018914
INCLINATION    = 42.9973
RA_OF_ASC_NODE = 268.0991
ARG_OF_PERICENTER = 273.8296
MEAN_ANOMALY   = 50.8913

EPHEMERIS_TYPE = 0
CLASSIFICATION_TYPE = U
NORAD_CAT_ID   = 67312
ELEMENT_SET_NO = 999
REV_AT_EPOCH   = 298
BSTAR          = -.61657528E-2
MEAN_MOTION_DOT = -.1331975E-1
MEAN_MOTION_DDOT = 0

CCSDS_OMM_VERS = 2.0
CREATION_DATE  = 
ORIGINATOR     = 

OBJECT_NAME    = STARLINK-36445
OBJECT_ID      = 2026-002J
CENTER_NAME    = EARTH
REF_FRAME      = TEME
TIME_SYSTEM    = UTC
MEAN_ELEMENT_THEORY = SGP/SGP4

EPOCH          = 2026-01-16T06:00:00.999648
MEAN_MOTION    = 15.85283755
ECCENTRICITY   = .00019262
INCLINATION    = 42.9969
RA_OF_ASC_NODE = 268.0943
ARG_OF_PERICENTER = 272.7368
MEAN_ANOMALY   = 53.7945

EPHEMERIS_TYPE = 0
CLASSIFICATION_TYPE = U
NORAD_CAT_ID   = 67313
ELEMENT_SET_NO = 999
REV_AT_EPOCH   = 314
BSTAR          = -.61612395E-2
MEAN_MOTION_DOT = -.1332251E-1
MEAN_MOTION_DDOT = 0

CCSDS_OMM_VERS = 2.0
CREATION_DATE  = 
ORIGINATOR     = 

OBJECT_NAME    = STARLINK-36476
OBJECT_ID      = 2026-002K
CENTER_NAME    = EARTH
REF_FRAME      = TEME
TIME_SYSTEM    = UTC
MEAN_ELEMENT_THEORY = SGP/SGP4

EPOCH          = 2026-01-16T06:00:00.999648
MEAN_MOTION    = 15.85264001
ECCENTRICITY   = .00018905
INCLINATION    = 42.9973
RA_OF_ASC_NODE = 268.0877
ARG_OF_PERICENTER = 275.0857
MEAN_ANOMALY   = 54.2460

EPHEMERIS_TYPE = 0
CLASSIFICATION_TYPE = U
NORAD_CAT_ID   = 67314
ELEMENT_SET_NO = 999
REV_AT_EPOCH   = 298
BSTAR          = -.62132483E-2
MEAN_MOTION_DOT = -.1340936E-1
MEAN_MOTION_DDOT = 0

CCSDS_OMM_VERS = 2.0
CREATION_DATE  = 
ORIGINATOR     = 

OBJECT_NAME    = STARLINK-36463
OBJECT_ID      = 2026-002L
CENTER_NAME    = EARTH
REF_FRAME      = TEME
TIME_SYSTEM    = UTC
MEAN_ELEMENT_THEORY = SGP/SGP4

EPOCH          = 2026-01-16T06:00:00.999648
MEAN_MOTION    = 15.85266256
ECCENTRICITY   = .00018517
INCLINATION    = 42.9972
RA_OF_ASC_NODE = 268.0754
ARG_OF_PERICENTER = 274.0368
MEAN_ANOMALY   = 59.9375

EPHEMERIS_TYPE = 0
CLASSIFICATION_TYPE = U
NORAD_CAT_ID   = 67315
ELEMENT_SET_NO = 999
REV_AT_EPOCH   = 304
BSTAR          = -.62871724E-2
MEAN_MOTION_DOT = -.1354987E-1
MEAN_MOTION_DDOT = 0

CCSDS_OMM_VERS = 2.0
CREATION_DATE  = 
ORIGINATOR     = 

OBJECT_NAME    = STARLINK-36461
OBJECT_ID      = 2026-002M
CENTER_NAME    = EARTH
REF_FRAME      = TEME
TIME_SYSTEM    = UTC
MEAN_ELEMENT_THEORY = SGP/SGP4

EPOCH          = 2026-01-16T06:00:00.999648
MEAN_MOTION    = 15.85237066
ECCENTRICITY   = .00018623
INCLINATION    = 42.9971
RA_OF_ASC_NODE = 268.0680
ARG_OF_PERICENTER = 277.5406
MEAN_ANOMALY   = 59.4140

EPHEMERIS_TYPE = 0
CLASSIFICATION_TYPE = U
NORAD_CAT_ID   = 67316
ELEMENT_SET_NO = 999
REV_AT_EPOCH   = 314
BSTAR          = -.63450829E-2
MEAN_MOTION_DOT = -.1364186E-1
MEAN_MOTION_DDOT = 0

CCSDS_OMM_VERS = 2.0
CREATION_DATE  = 
ORIGINATOR     = 

OBJECT_NAME    = STARLINK-36450
OBJECT_ID      = 2026-002N
CENTER_NAME    = EARTH
REF_FRAME      = TEME
TIME_SYSTEM    = UTC
MEAN_ELEMENT_THEORY = SGP/SGP4

EPOCH          = 2026-01-16T06:00:00.999648
MEAN_MOTION    = 15.85238299
ECCENTRICITY   = .00018844
INCLINATION    = 42.9973
RA_OF_ASC_NODE = 268.0621
ARG_OF_PERICENTER = 277.5900
MEAN_ANOMALY   = 61.7157

EPHEMERIS_TYPE = 0
CLASSIFICATION_TYPE = U
NORAD_CAT_ID   = 67317
ELEMENT_SET_NO = 999
REV_AT_EPOCH   = 314
BSTAR          = -.639109E-2
MEAN_MOTION_DOT = -.1372903E-1
MEAN_MOTION_DDOT = 0

CCSDS_OMM_VERS = 2.0
CREATION_DATE  = 
ORIGINATOR     = 

OBJECT_NAME    = STARLINK-36498
OBJECT_ID      = 2026-002P
CENTER_NAME    = EARTH
REF_FRAME      = TEME
TIME_SYSTEM    = UTC
MEAN_ELEMENT_THEORY = SGP/SGP4

EPOCH          = 2026-01-16T06:00:00.999648
MEAN_MOTION    = 15.85222236
ECCENTRICITY   = .00018103
INCLINATION    = 42.9970
RA_OF_ASC_NODE = 268.0493
ARG_OF_PERICENTER = 277.5730
MEAN_ANOMALY   = 66.6869

EPHEMERIS_TYPE = 0
CLASSIFICATION_TYPE = U
NORAD_CAT_ID   = 67318
ELEMENT_SET_NO = 999
REV_AT_EPOCH   = 304
BSTAR          = -.64432036E-2
MEAN_MOTION_DOT = -.1381648E-1
MEAN_MOTION_DDOT = 0

CCSDS_OMM_VERS = 2.0
CREATION_DATE  = 
ORIGINATOR     = 

OBJECT_NAME    = STARLINK-36470
OBJECT_ID      = 2026-002Q
CENTER_NAME    = EARTH
REF_FRAME      = TEME
TIME_SYSTEM    = UTC
MEAN_ELEMENT_THEORY = SGP/SGP4

EPOCH          = 2026-01-16T06:00:00.999648
MEAN_MOTION    = 15.85229300
ECCENTRICITY   = .00018811
INCLINATION    = 42.9973
RA_OF_ASC_NODE = 268.0558
ARG_OF_PERICENTER = 277.6682
MEAN_ANOMALY   = 64.1183

EPHEMERIS_TYPE = 0
CLASSIFICATION_TYPE = U
NORAD_CAT_ID   = 67319
ELEMENT_SET_NO = 999
REV_AT_EPOCH   = 304
BSTAR          = -.6420144E-2
MEAN_MOTION_DOT = -.137781E-1
MEAN_MOTION_DDOT = 0

CCSDS_OMM_VERS = 2.0
CREATION_DATE  = 
ORIGINATOR     = 

OBJECT_NAME    = STARLINK-36500
OBJECT_ID      = 2026-002R
CENTER_NAME    = EARTH
REF_FRAME      = TEME
TIME_SYSTEM    = UTC
MEAN_ELEMENT_THEORY = SGP/SGP4

EPOCH          = 2026-01-16T06:00:00.999648
MEAN_MOTION    = 15.85218703
ECCENTRICITY   = .00019091
INCLINATION    = 42.9974
RA_OF_ASC_NODE = 268.0439
ARG_OF_PERICENTER = 272.5605
MEAN_ANOMALY   = 74.1158

EPHEMERIS_TYPE = 0
CLASSIFICATION_TYPE = U
NORAD_CAT_ID   = 67320
ELEMENT_SET_NO = 999
REV_AT_EPOCH   = 304
BSTAR          = -.64791089E-2
MEAN_MOTION_DOT = -.1388218E-1
MEAN_MOTION_DDOT = 0

