STARLINK-36482          
1 67309U 26002E   26016.25001157 -.01343579  00000+0 -62267-2 0  9999
2 67309  42.9975 268.0826 0001849 276.0385  55.5327 15.85266151  2984
STARLINK-36491          
1 67310U 26002F   26016.25001157 -.01305141  00000+0 -60169-2 0  9993
2 67310  42.9975 268.1243 0001927 277.0404  37.7807 15.85289899  2989
STARLINK-36495          
1 67311U 26002G   26016.25001157 -.01323845  00000+0 -61159-2 0  9995
2 67311  42.9973 268.1064 0001872 273.5533  48.3303 15.85287780  3147
STARLINK-36485          
1 67312U 26002H   26016.25001157 -.01331975  00000+0 -61658-2 0  9993
2 67312  42.9973 268.0991 0001891 273.8296  50.8913 15.85264449  2989
STARLINK-36445          
1 67313U 26002J   26016.25001157 -.01332251  00000+0 -61612-2 0  9992
2 67313  42.9969 268.0943 0001926 272.7368  53.7945 15.85283755  3146
STARLINK-36476          
1 67314U 26002K   26016.25001157 -.01340936  00000+0 -62132-2 0  9990
2 67314  42.9973 268.0877 0001890 275.0857  54.2460 15.85264001  2989
STARLINK-36463          
1 67315U 26002L   26016.25001157 -.01354987  00000+0 -62872-2 0  9993
2 67315  42.9972 268.0754 0001851 274.0368  59.9375 15.85266256  3045
STARLINK-36461          
1 67316U 26002M   26016.25001157 -.01364186  00000+0 -63451-2 0  9990
2 67316  42.9971 268.0680 0001862 277.5406  59.4140 15.85237066  3149
STARLINK-36450          
1 67317U 26002N   26016.25001157 -.01372903  00000+0 -63911-2 0  9998
2 67317  42.9973 268.0621 0001884 277.5900  61.7157 15.85238299  3143
STARLINK-36498          
1 67318U 26002P   26016.25001157 -.01381648  00000+0 -64432-2 0  9994
2 67318  42.9970 268.0493 0001810 277.5730  66.6869 15.85222236  3045
STARLINK-36470          
1 67319U 26002Q   26016.25001157 -.01377810  00000+0 -64201-2 0  9995
2 67319  42.9973 268.0558 0001881 277.6682  64.1183 15.85229300  3047
STARLINK-36500          
1 67320U 26002R   26016.25001157 -.01388218  00000+0 -64791-2 0  9995
2 67320  42.9974 268.0439 0001909 272.5605  74.1158 15.85218703  3046
